<?xml version="1.0" encoding="UTF-8"?>
<ndm xmlns:xsi="http://www.w3.org/2001/XMLSchema-instance" xsi:noNamespaceSchemaLocation="https://sanaregistry.org/r/ndmxml_unqualified/ndmxml-2.0.0-master-2.0.xsd">
<omm id="CCSDS_OMM_VERS" version="2.0">
<header><CREATION_DATE/><ORIGINATOR/></header><body><segment><metadata><OBJECT_NAME>ONEWEB-0361</OBJECT_NAME><OBJECT_ID>2021-090J</OBJECT_ID><CENTER_NAME>EARTH</CENTER_NAME><REF_FRAME>TEME</REF_FRAME><TIME_SYSTEM>UTC</TIME_SYSTEM><MEAN_ELEMENT_THEORY>SGP4</MEAN_ELEMENT_THEORY></metadata><data><meanElements><EPOCH>2023-12-17T19:26:08.041056</EPOCH><MEAN_MOTION>13.20771021</MEAN_MOTION><ECCENTRICITY>.0001592</ECCENTRICITY><INCLINATION>87.9192</INCLINATION><RA_OF_ASC_NODE>96.0673</RA_OF_ASC_NODE><ARG_OF_PERICENTER>103.7259</ARG_OF_PERICENTER><MEAN_ANOMALY>256.4052</MEAN_ANOMALY></meanElements><tleParameters><EPHEMERIS_TYPE>0</EPHEMERIS_TYPE><CLASSIFICATION_TYPE>U</CLASSIFICATION_TYPE><NORAD_CAT_ID>49287</NORAD_CAT_ID><ELEMENT_SET_NO>999</ELEMENT_SET_NO><REV_AT_EPOCH>10986</REV_AT_EPOCH><BSTAR>.47528E-4</BSTAR><MEAN_MOTION_DOT>.32E-6</MEAN_MOTION_DOT><MEAN_MOTION_DDOT>0</MEAN_MOTION_DDOT></tleParameters></data></segment></body></omm>
<omm id="CCSDS_OMM_VERS" version="2.0">
<header><CREATION_DATE/><ORIGINATOR/></header><body><segment><metadata><OBJECT_NAME>ONEWEB-0362</OBJECT_NAME><OBJECT_ID>2021-090K</OBJECT_ID><CENTER_NAME>EARTH</CENTER_NAME><REF_FRAME>TEME</REF_FRAME><TIME_SYSTEM>UTC</TIME_SYSTEM><MEAN_ELEMENT_THEORY>SGP4</MEAN_ELEMENT_THEORY></metadata><data><meanElements><EPOCH>2023-12-17T20:58:12.226368</EPOCH><MEAN_MOTION>13.19725417</MEAN_MOTION><ECCENTRICITY>.0001824</ECCENTRICITY><INCLINATION>87.9185</INCLINATION><RA_OF_ASC_NODE>126.5805</RA_OF_ASC_NODE><ARG_OF_PERICENTER>110.5984</ARG_OF_PERICENTER><MEAN_ANOMALY>249.5345</MEAN_ANOMALY></meanElements><tleParameters><EPHEMERIS_TYPE>0</EPHEMERIS_TYPE><CLASSIFICATION_TYPE>U</CLASSIFICATION_TYPE><NORAD_CAT_ID>49288</NORAD_CAT_ID><ELEMENT_SET_NO>999</ELEMENT_SET_NO><REV_AT_EPOCH>10658</REV_AT_EPOCH><BSTAR>.3035E-3</BSTAR><MEAN_MOTION_DOT>.134E-5</MEAN_MOTION_DOT><MEAN_MOTION_DDOT>0</MEAN_MOTION_DDOT></tleParameters></data></segment></body></omm>
<omm id="CCSDS_OMM_VERS" version="2.0">
<header><CREATION_DATE/><ORIGINATOR/></header><body><segment><metadata><OBJECT_NAME>ONEWEB-0363</OBJECT_NAME><OBJECT_ID>2021-090L</OBJECT_ID><CENTER_NAME>EARTH</CENTER_NAME><REF_FRAME>TEME</REF_FRAME><TIME_SYSTEM>UTC</TIME_SYSTEM><MEAN_ELEMENT_THEORY>SGP4</MEAN_ELEMENT_THEORY></metadata><data><meanElements><EPOCH>2023-12-17T19:48:51.695712</EPOCH><MEAN_MOTION>13.20771127</MEAN_MOTION><ECCENTRICITY>.0001556</ECCENTRICITY><INCLINATION>87.9191</INCLINATION><RA_OF_ASC_NODE>96.0600</RA_OF_ASC_NODE><ARG_OF_PERICENTER>91.4360</ARG_OF_PERICENTER><MEAN_ANOMALY>268.6952</MEAN_ANOMALY></meanElements><tleParameters><EPHEMERIS_TYPE>0</EPHEMERIS_TYPE><CLASSIFICATION_TYPE>U</CLASSIFICATION_TYPE><NORAD_CAT_ID>49289</NORAD_CAT_ID><ELEMENT_SET_NO>999</ELEMENT_SET_NO><REV_AT_EPOCH>10987</REV_AT_EPOCH><BSTAR>.51885E-4</BSTAR><MEAN_MOTION_DOT>.34E-6</MEAN_MOTION_DOT><MEAN_MOTION_DDOT>0</MEAN_MOTION_DDOT></tleParameters></data></segment></body></omm>
<omm id="CCSDS_OMM_VERS" version="2.0">
<header><CREATION_DATE/><ORIGINATOR/></header><body><segment><metadata><OBJECT_NAME>ONEWEB-0364</OBJECT_NAME><OBJECT_ID>2021-090M</OBJECT_ID><CENTER_NAME>EARTH</CENTER_NAME><REF_FRAME>TEME</REF_FRAME><TIME_SYSTEM>UTC</TIME_SYSTEM><MEAN_ELEMENT_THEORY>SGP4</MEAN_ELEMENT_THEORY></metadata><data><meanElements><EPOCH>2023-12-18T07:37:56.537472</EPOCH><MEAN_MOTION>13.20770177</MEAN_MOTION><ECCENTRICITY>.0001521</ECCENTRICITY><INCLINATION>87.9198</INCLINATION><RA_OF_ASC_NODE>95.9815</RA_OF_ASC_NODE><ARG_OF_PERICENTER>110.4089</ARG_OF_PERICENTER><MEAN_ANOMALY>249.7207</MEAN_ANOMALY></meanElements><tleParameters><EPHEMERIS_TYPE>0</EPHEMERIS_TYPE><CLASSIFICATION_TYPE>U</CLASSIFICATION_TYPE><NORAD_CAT_ID>49290</NORAD_CAT_ID><ELEMENT_SET_NO>999</ELEMENT_SET_NO><REV_AT_EPOCH>11189</REV_AT_EPOCH><BSTAR>.9155E-4</BSTAR><MEAN_MOTION_DOT>.5E-6</MEAN_MOTION_DOT><MEAN_MOTION_DDOT>0</MEAN_MOTION_DDOT></tleParameters></data></segment></body></omm>
<omm id="CCSDS_OMM_VERS" version="2.0">
<header><CREATION_DATE/><ORIGINATOR/></header><body><segment><metadata><OBJECT_NAME>ONEWEB-0365</OBJECT_NAME><OBJECT_ID>2021-090N</OBJECT_ID><CENTER_NAME>EARTH</CENTER_NAME><REF_FRAME>TEME</REF_FRAME><TIME_SYSTEM>UTC</TIME_SYSTEM><MEAN_ELEMENT_THEORY>SGP4</MEAN_ELEMENT_THEORY></metadata><data><meanElements><EPOCH>2023-12-17T21:11:51.338112</EPOCH><MEAN_MOTION>13.19729818</MEAN_MOTION><ECCENTRICITY>.0001771</ECCENTRICITY><INCLINATION>87.9188</INCLINATION><RA_OF_ASC_NODE>126.5693</RA_OF_ASC_NODE><ARG_OF_PERICENTER>108.5916</ARG_OF_PERICENTER><MEAN_ANOMALY>251.5409</MEAN_ANOMALY></meanElements><tleParameters><EPHEMERIS_TYPE>0</EPHEMERIS_TYPE><CLASSIFICATION_TYPE>U</CLASSIFICATION_TYPE><NORAD_CAT_ID>49291</NORAD_CAT_ID><ELEMENT_SET_NO>999</ELEMENT_SET_NO><REV_AT_EPOCH>10609</REV_AT_EPOCH><BSTAR>-.2228E-2</BSTAR><MEAN_MOTION_DOT>-.879E-5</MEAN_MOTION_DOT><MEAN_MOTION_DDOT>0</MEAN_MOTION_DDOT></tleParameters></data></segment></body></omm>
<omm id="CCSDS_OMM_VERS" version="2.0">
<header><CREATION_DATE/><ORIGINATOR/></header><body><segment><metadata><OBJECT_NAME>ONEWEB-0366</OBJECT_NAME><OBJECT_ID>2021-090P</OBJECT_ID><CENTER_NAME>EARTH</CENTER_NAME><REF_FRAME>TEME</REF_FRAME><TIME_SYSTEM>UTC</TIME_SYSTEM><MEAN_ELEMENT_THEORY>SGP4</MEAN_ELEMENT_THEORY></metadata><data><meanElements><EPOCH>2023-12-17T20:38:02.491584</EPOCH><MEAN_MOTION>13.14505861</MEAN_MOTION><ECCENTRICITY>.0001408</ECCENTRICITY><INCLINATION>87.8972</INCLINATION><RA_OF_ASC_NODE>111.3195</RA_OF_ASC_NODE><ARG_OF_PERICENTER>111.3622</ARG_OF_PERICENTER><MEAN_ANOMALY>248.7659</MEAN_ANOMALY></meanElements><tleParameters><EPHEMERIS_TYPE>0</EPHEMERIS_TYPE><CLASSIFICATION_TYPE>U</CLASSIFICATION_TYPE><NORAD_CAT_ID>49292</NORAD_CAT_ID><ELEMENT_SET_NO>999</ELEMENT_SET_NO><REV_AT_EPOCH>10770</REV_AT_EPOCH><BSTAR>.63956E-3</BSTAR><MEAN_MOTION_DOT>.25E-5</MEAN_MOTION_DOT><MEAN_MOTION_DDOT>0</MEAN_MOTION_DDOT></tleParameters></data></segment></body></omm>
<omm id="CCSDS_OMM_VERS" version="2.0">
<header><CREATION_DATE/><ORIGINATOR/></header><body><segment><metadata><OBJECT_NAME>ONEWEB-0367</OBJECT_NAME><OBJECT_ID>2021-090Q</OBJECT_ID><CENTER_NAME>EARTH</CENTER_NAME><REF_FRAME>TEME</REF_FRAME><TIME_SYSTEM>UTC</TIME_SYSTEM><MEAN_ELEMENT_THEORY>SGP4</MEAN_ELEMENT_THEORY></metadata><data><meanElements><EPOCH>2023-12-18T08:30:14.154336</EPOCH><MEAN_MOTION>13.20772937</MEAN_MOTION><ECCENTRICITY>.0001452</ECCENTRICITY><INCLINATION>87.9189</INCLINATION><RA_OF_ASC_NODE>95.9479</RA_OF_ASC_NODE><ARG_OF_PERICENTER>113.5005</ARG_OF_PERICENTER><MEAN_ANOMALY>246.6281</MEAN_ANOMALY></meanElements><tleParameters><EPHEMERIS_TYPE>0</EPHEMERIS_TYPE><CLASSIFICATION_TYPE>U</CLASSIFICATION_TYPE><NORAD_CAT_ID>49293</NORAD_CAT_ID><ELEMENT_SET_NO>999</ELEMENT_SET_NO><REV_AT_EPOCH>11076</REV_AT_EPOCH><BSTAR>.16645E-3</BSTAR><MEAN_MOTION_DOT>.81E-6</MEAN_MOTION_DOT><MEAN_MOTION_DDOT>0</MEAN_MOTION_DDOT></tleParameters></data></segment></body></omm>
<omm id="CCSDS_OMM_VERS" version="2.0">
<header><CREATION_DATE/><ORIGINATOR/></header><body><segment><metadata><OBJECT_NAME>ONEWEB-0368</OBJECT_NAME><OBJECT_ID>2021-090R</OBJECT_ID><CENTER_NAME>EARTH</CENTER_NAME><REF_FRAME>TEME</REF_FRAME><TIME_SYSTEM>UTC</TIME_SYSTEM><MEAN_ELEMENT_THEORY>SGP4</MEAN_ELEMENT_THEORY></metadata><data><meanElements><EPOCH>2023-12-17T19:07:56.989632</EPOCH><MEAN_MOTION>13.20772967</MEAN_MOTION><ECCENTRICITY>.0000775</ECCENTRICITY><INCLINATION>87.9201</INCLINATION><RA_OF_ASC_NODE>96.0862</RA_OF_ASC_NODE><ARG_OF_PERICENTER>108.5044</ARG_OF_PERICENTER><MEAN_ANOMALY>251.6174</MEAN_ANOMALY></meanElements><tleParameters><EPHEMERIS_TYPE>0</EPHEMERIS_TYPE><CLASSIFICATION_TYPE>U</CLASSIFICATION_TYPE><NORAD_CAT_ID>49294</NORAD_CAT_ID><ELEMENT_SET_NO>999</ELEMENT_SET_NO><REV_AT_EPOCH>11054</REV_AT_EPOCH><BSTAR>.24109E-3</BSTAR><MEAN_MOTION_DOT>.111E-5</MEAN_MOTION_DOT><MEAN_MOTION_DDOT>0</MEAN_MOTION_DDOT></tleParameters></data></segment></body></omm>

</ndm>
