ONEWEB-0361             
1 49287U 21090J   23351.80981529  .00000032  00000+0  47528-4 0  9992
2 49287  87.9192  96.0673 0001592 103.7259 256.4052 13.20771021109865
ONEWEB-0362             
1 49288U 21090K   23351.87375262  .00000134  00000+0  30350-3 0  9998
2 49288  87.9185 126.5805 0001824 110.5984 249.5345 13.19725417106583
ONEWEB-0363             
1 49289U 21090L   23351.82559833  .00000034  00000+0  51885-4 0  9998
2 49289  87.9191  96.0600 0001556  91.4360 268.6952 13.20771127109874
ONEWEB-0364             
1 49290U 21090M   23352.31801548  .00000050  00000+0  91550-4 0  9999
2 49290  87.9198  95.9815 0001521 110.4089 249.7207 13.20770177111893
ONEWEB-0365             
1 49291U 21090N   23351.88323308 -.00000879  00000+0 -22280-2 0  9997
2 49291  87.9188 126.5693 0001771 108.5916 251.5409 13.19729818106097
ONEWEB-0366             
1 49292U 21090P   23351.85975106  .00000250  00000+0  63956-3 0  9991
2 49292  87.8972 111.3195 0001408 111.3622 248.7659 13.14505861107709
ONEWEB-0367             
1 49293U 21090Q   23352.35433049  .00000081  00000+0  16645-3 0  9998
2 49293  87.9189  95.9479 0001452 113.5005 246.6281 13.20772937110766
ONEWEB-0368             
1 49294U 21090R   23351.79718738  .00000111  00000+0  24109-3 0  9995
2 49294  87.9201  96.0862 0000775 108.5044 251.6174 13.20772967110540
